{
    "links": {
        "self": "http://www.neowsapp.com/rest/v1/neo/3703255?api_key=iIulBulltgU6a56xZRHN4H3l9WmuAYTsLGpBGhQ2"
    },
    "id": "3703255",
    "neo_reference_id": "3703255",
    "name": "(2014 YL42)",
    "designation": "2014 YL42",
    "nasa_jpl_url": "http://ssd.jpl.nasa.gov/sbdb.cgi?sstr=3703255",
    "absolute_magnitude_h": 24.6,
    "estimated_diameter": {
        "kilometers": {
            "estimated_diameter_min": 0.0319561887,
            "estimated_diameter_max": 0.0714562102
        },
        "meters": {
            "estimated_diameter_min": 31.9561886721,
            "estimated_diameter_max": 71.4562101727
        },
        "miles": {
            "estimated_diameter_min": 0.0198566489,
            "estimated_diameter_max": 0.0444008168
        },
        "feet": {
            "estimated_diameter_min": 104.8431420431,
            "estimated_diameter_max": 234.436392583
        }
    },
    "is_potentially_hazardous_asteroid": false,
    "close_approach_data": [
        {
            "close_approach_date": "2014-08-14",
            "close_approach_date_full": "2014-Aug-14 22:52",
            "epoch_date_close_approach": 1408056720000,
            "relative_velocity": {
                "kilometers_per_second": "16.2607881924",
                "kilometers_per_hour": "58538.8374925694",
                "miles_per_hour": "36373.7571075357"
            },
            "miss_distance": {
                "astronomical": "0.0118176909",
                "lunar": "4.5970817601",
                "kilometers": "1767901.386958383",
                "miles": "1098522.9826683654"
            },
            "orbiting_body": "Mars"
        },
        {
            "close_approach_date": "2014-12-27",
            "close_approach_date_full": "2014-Dec-27 12:19",
            "epoch_date_close_approach": 1419682740000,
            "relative_velocity": {
                "kilometers_per_second": "18.063318846",
                "kilometers_per_hour": "65027.9478457606",
                "miles_per_hour": "40405.8379267172"
            },
            "miss_distance": {
                "astronomical": "0.0046260899",
                "lunar": "1.7995489711",
                "kilometers": "692053.195468513",
                "miles": "430021.9152829594"
            },
            "orbiting_body": "Moon"
        },
        {
            "close_approach_date": "2014-12-27",
            "close_approach_date_full": "2014-Dec-27 14:21",
            "epoch_date_close_approach": 1419690060000,
            "relative_velocity": {
                "kilometers_per_second": "19.0397884893",
                "kilometers_per_hour": "68543.2385613745",
                "miles_per_hour": "42590.1028716496"
            },
            "miss_distance": {
                "astronomical": "0.0041143308",
                "lunar": "1.6004746812",
                "kilometers": "615495.124155396",
                "miles": "382450.9356646248"
            },
            "orbiting_body": "Earth"
        },
        {
            "close_approach_date": "2066-02-08",
            "close_approach_date_full": "2066-Feb-08 14:56",
            "epoch_date_close_approach": 3032866560000,
            "relative_velocity": {
                "kilometers_per_second": "13.1514053579",
                "kilometers_per_hour": "47345.0592885476",
                "miles_per_hour": "29418.3786451534"
            },
            "miss_distance": {
                "astronomical": "0.0863561061",
                "lunar": "33.5925252729",
                "kilometers": "12918689.534054007",
                "miles": "8027301.4455470166"
            },
            "orbiting_body": "Venus"
        },
        {
            "close_approach_date": "2109-01-04",
            "close_approach_date_full": "2109-Jan-04 18:06",
            "epoch_date_close_approach": 4386765960000,
            "relative_velocity": {
                "kilometers_per_second": "22.3583764023",
                "kilometers_per_hour": "80490.1550484553",
                "miles_per_hour": "50013.4521744138"
            },
            "miss_distance": {
                "astronomical": "0.1088940088",
                "lunar": "42.3597694232",
                "kilometers": "16290311.772241256",
                "miles": "10122330.3565750928"
            },
            "orbiting_body": "Earth"
        }
    ],
    "orbital_data": {
        "orbit_id": "9",
        "orbit_determination_date": "2017-04-06 08:36:33",
        "first_observation_date": "2014-12-31",
        "last_observation_date": "2015-01-23",
        "data_arc_in_days": 23,
        "observations_used": 47,
        "orbit_uncertainty": "7",
        "minimum_orbit_intersection": ".00343233",
        "jupiter_tisserand_invariant": "3.507",
        "epoch_osculation": "2459000.5",
        "eccentricity": ".6735227102449127",
        "semi_major_axis": "2.009445662496059",
        "inclination": "3.26231294613211",
        "ascending_node_longitude": "279.2435207974862",
        "orbital_period": "1040.42990653293",
        "perihelion_distance": ".6560383738018291",
        "perihelion_argument": "96.48439077031361",
        "aphelion_distance": "3.362852951190289",
        "perihelion_time": "2459054.944657150629",
        "mean_anomaly": "341.161559802197",
        "mean_motion": ".3460108150866633",
        "equinox": "J2000",
        "orbit_class": {
            "orbit_class_type": "APO",
            "orbit_class_description": "Near-Earth asteroid orbits which cross the Earth’s orbit similar to that of 1862 Apollo",
            "orbit_class_range": "a (semi-major axis) > 1.0 AU; q (perihelion) < 1.017 AU"
        }
    },
    "is_sentry_object": false
}